{
"type": "FeatureCollection",
"name": "Boundary",
"crs": { "type": "name", "properties": { "name": "urn:ogc:def:crs:EPSG::4979" } },
"features": [
{ "type": "Feature", "properties": { "LAYER": "TEA GARDEN BOUNDARY" }, "geometry": { "type": "Polygon", "coordinates": [ [ [ 94.865313078691216, 27.059809115761869, -56.910175052853376 ], [ 94.865732761579238, 27.059697818887486, -56.907117344280344 ], [ 94.86657811143337, 27.059490669243079, -56.901022826471504 ], [ 94.866675789894671, 27.05980259752511, -56.901660934170799 ], [ 94.866706671034009, 27.060071267946153, -56.902542680486597 ], [ 94.866846148233151, 27.06022538211559, -56.902290757284263 ], [ 94.866837742401259, 27.060464271362783, -56.903298505959356 ], [ 94.866807652275639, 27.060695179663686, -56.904409111259049 ], [ 94.866700187541269, 27.06107617836016, -56.906600433076107 ], [ 94.865786195908797, 27.061101607553571, -56.912380330966457 ], [ 94.865632762862319, 27.060654947742652, -56.911553894802438 ], [ 94.86550379703661, 27.060352359135827, -56.9111506983173 ], [ 94.865416895593697, 27.06017207051072, -56.910973552996282 ], [ 94.865313078691216, 27.059809115761869, -56.910175052853376 ] ] ] } }
]
}
