{
"type": "FeatureCollection",
"name": "Empty_Patch",
"crs": { "type": "name", "properties": { "name": "urn:ogc:def:crs:OGC:1.3:CRS84" } },
"features": [
{ "type": "Feature", "properties": { "id": null }, "geometry": { "type": "MultiPolygon", "coordinates": [ [ [ [ 94.86570111737575, 27.060807308304188 ], [ 94.865701964344964, 27.060806176934278 ], [ 94.865850607444997, 27.060768841720815 ], [ 94.865941339023891, 27.0607483827728 ], [ 94.866053985931586, 27.060714441652674 ], [ 94.866096863748936, 27.06069926242618 ], [ 94.866137094787391, 27.060678897746421 ], [ 94.866159115987372, 27.060655893196316 ], [ 94.866173620335488, 27.060635057103823 ], [ 94.866182936997035, 27.060624497634652 ], [ 94.866219886029725, 27.060599513172402 ], [ 94.866258846614329, 27.060576131481941 ], [ 94.866290607960522, 27.060542567433874 ], [ 94.866327451122046, 27.06050900337577 ], [ 94.866348625352828, 27.060487695850508 ], [ 94.866372763975903, 27.060456017398415 ], [ 94.866387268324004, 27.060428015902051 ], [ 94.866395738016308, 27.06040237142788 ], [ 94.866409713008636, 27.06036918445259 ], [ 94.866429722656719, 27.060349479681367 ], [ 94.866488587018267, 27.060314784190602 ], [ 94.866558038495199, 27.060279994407843 ], [ 94.866612350397119, 27.060255764119166 ], [ 94.866650464012523, 27.060242941863113 ], [ 94.866689424597169, 27.060232759482261 ], [ 94.86673134957411, 27.060227856854119 ], [ 94.866782167727933, 27.06022182284995 ], [ 94.866825786643332, 27.060219842942271 ], [ 94.866846960874113, 27.060227008322304 ], [ 94.866708057920221, 27.060071632610434 ], [ 94.866703399589454, 27.060073518239292 ], [ 94.866697470804851, 27.06008068362868 ], [ 94.866688154143333, 27.060089734646191 ], [ 94.866664439004822, 27.06010104841706 ], [ 94.866644958712527, 27.060104442548102 ], [ 94.866624631450989, 27.06010632817641 ], [ 94.866620396604844, 27.060113870689328 ], [ 94.866607692066381, 27.060125938708953 ], [ 94.866590540939441, 27.060138478134217 ], [ 94.866555815200982, 27.060162991292334 ], [ 94.866541840208654, 27.06016563117058 ], [ 94.866536334908659, 27.060162991292334 ], [ 94.866517701585579, 27.060126787241529 ], [ 94.866510925831719, 27.060129049995055 ], [ 94.866480011454797, 27.060141872264118 ], [ 94.866444862231717, 27.060159597163064 ], [ 94.866376151852847, 27.060187221601051 ], [ 94.866335497329757, 27.0602106033726 ], [ 94.866304582952836, 27.060237379266287 ], [ 94.866308817798981, 27.06026340090332 ], [ 94.866312205675882, 27.060297719284964 ], [ 94.866311358706682, 27.060307335972436 ], [ 94.866265939981645, 27.060338354498001 ], [ 94.866229943789349, 27.060362490487638 ], [ 94.866190136235474, 27.060388889220349 ], [ 94.866170232458572, 27.06041076245133 ], [ 94.866137200658557, 27.060447343534968 ], [ 94.866100675110459, 27.060491655656399 ], [ 94.866055256385422, 27.060529462367434 ], [ 94.865998932931603, 27.060569814653434 ], [ 94.865948961746952, 27.060595081965314 ], [ 94.865900155145027, 27.060611769701751 ], [ 94.865846372598838, 27.060619312180688 ], [ 94.865811223375758, 27.060626194692272 ], [ 94.865756593860354, 27.060632228674677 ], [ 94.865726526452676, 27.060636754161273 ], [ 94.865697729498805, 27.060638262656777 ], [ 94.86568248405267, 27.060645805133916 ], [ 94.865650299221898, 27.0606578730963 ], [ 94.86570111737575, 27.060807308304188 ] ] ] ] } }
]
}
