{
"type": "FeatureCollection",
"name": "Tree",
"crs": { "type": "name", "properties": { "name": "urn:ogc:def:crs:OGC:1.3:CRS84" } },
"features": [
{ "type": "Feature", "properties": { "id": null }, "geometry": { "type": "MultiPoint", "coordinates": [ [ 94.866016572750297, 27.0609228801647 ] ] } },
{ "type": "Feature", "properties": { "id": null }, "geometry": { "type": "MultiPoint", "coordinates": [ [ 94.865848793021186, 27.060944288414323 ] ] } },
{ "type": "Feature", "properties": { "id": null }, "geometry": { "type": "MultiPoint", "coordinates": [ [ 94.866104084566317, 27.060972869118046 ] ] } },
{ "type": "Feature", "properties": { "id": null }, "geometry": { "type": "MultiPoint", "coordinates": [ [ 94.86631021982619, 27.061010987091816 ] ] } },
{ "type": "Feature", "properties": { "id": null }, "geometry": { "type": "MultiPoint", "coordinates": [ [ 94.865976049884964, 27.060795787522235 ] ] } },
{ "type": "Feature", "properties": { "id": null }, "geometry": { "type": "MultiPoint", "coordinates": [ [ 94.866066912634182, 27.060794610569701 ] ] } },
{ "type": "Feature", "properties": { "id": null }, "geometry": { "type": "MultiPoint", "coordinates": [ [ 94.866134646683591, 27.060875820265366 ] ] } },
{ "type": "Feature", "properties": { "id": null }, "geometry": { "type": "MultiPoint", "coordinates": [ [ 94.86590361591729, 27.061056364387998 ] ] } },
{ "type": "Feature", "properties": { "id": null }, "geometry": { "type": "MultiPoint", "coordinates": [ [ 94.86576643586703, 27.06104036699724 ] ] } },
{ "type": "Feature", "properties": { "id": null }, "geometry": { "type": "MultiPoint", "coordinates": [ [ 94.866000434103654, 27.061085409423065 ] ] } },
{ "type": "Feature", "properties": { "id": null }, "geometry": { "type": "MultiPoint", "coordinates": [ [ 94.866169148886527, 27.061046932115278 ] ] } },
{ "type": "Feature", "properties": { "id": null }, "geometry": { "type": "MultiPoint", "coordinates": [ [ 94.866542728634116, 27.061069831559848 ] ] } },
{ "type": "Feature", "properties": { "id": null }, "geometry": { "type": "MultiPoint", "coordinates": [ [ 94.866181373889248, 27.060942224415069 ] ] } },
{ "type": "Feature", "properties": { "id": null }, "geometry": { "type": "MultiPoint", "coordinates": [ [ 94.866383810223923, 27.061044506627685 ] ] } },
{ "type": "Feature", "properties": { "id": null }, "geometry": { "type": "MultiPoint", "coordinates": [ [ 94.866352648242099, 27.060881157324889 ] ] } },
{ "type": "Feature", "properties": { "id": null }, "geometry": { "type": "MultiPoint", "coordinates": [ [ 94.866683036072217, 27.061036149960632 ] ] } },
{ "type": "Feature", "properties": { "id": null }, "geometry": { "type": "MultiPoint", "coordinates": [ [ 94.866548330340549, 27.060998050037622 ] ] } },
{ "type": "Feature", "properties": { "id": null }, "geometry": { "type": "MultiPoint", "coordinates": [ [ 94.866540116585739, 27.060963242934299 ] ] } },
{ "type": "Feature", "properties": { "id": null }, "geometry": { "type": "MultiPoint", "coordinates": [ [ 94.866627101551529, 27.060932507329287 ] ] } },
{ "type": "Feature", "properties": { "id": null }, "geometry": { "type": "MultiPoint", "coordinates": [ [ 94.86649184889626, 27.060793397678747 ] ] } },
{ "type": "Feature", "properties": { "id": null }, "geometry": { "type": "MultiPoint", "coordinates": [ [ 94.866199151311065, 27.060768587699695 ] ] } },
{ "type": "Feature", "properties": { "id": null }, "geometry": { "type": "MultiPoint", "coordinates": [ [ 94.866306366426571, 27.060826318380389 ] ] } },
{ "type": "Feature", "properties": { "id": null }, "geometry": { "type": "MultiPoint", "coordinates": [ [ 94.866280529368012, 27.060648849034816 ] ] } },
{ "type": "Feature", "properties": { "id": null }, "geometry": { "type": "MultiPoint", "coordinates": [ [ 94.866508528501413, 27.060703490438446 ] ] } },
{ "type": "Feature", "properties": { "id": null }, "geometry": { "type": "MultiPoint", "coordinates": [ [ 94.86641856989587, 27.060716648665998 ] ] } },
{ "type": "Feature", "properties": { "id": null }, "geometry": { "type": "MultiPoint", "coordinates": [ [ 94.866628314648693, 27.060615987215158 ] ] } },
{ "type": "Feature", "properties": { "id": null }, "geometry": { "type": "MultiPoint", "coordinates": [ [ 94.866392395097122, 27.060496331859966 ] ] } },
{ "type": "Feature", "properties": { "id": null }, "geometry": { "type": "MultiPoint", "coordinates": [ [ 94.866619515172118, 27.060358629746851 ] ] } },
{ "type": "Feature", "properties": { "id": null }, "geometry": { "type": "MultiPoint", "coordinates": [ [ 94.866513654638212, 27.060390053657532 ] ] } },
{ "type": "Feature", "properties": { "id": null }, "geometry": { "type": "MultiPoint", "coordinates": [ [ 94.866764900219366, 27.060619651355196 ] ] } },
{ "type": "Feature", "properties": { "id": null }, "geometry": { "type": "MultiPoint", "coordinates": [ [ 94.865742885352361, 27.060544743179197 ] ] } },
{ "type": "Feature", "properties": { "id": null }, "geometry": { "type": "MultiPoint", "coordinates": [ [ 94.865988687893619, 27.060512480434983 ] ] } },
{ "type": "Feature", "properties": { "id": null }, "geometry": { "type": "MultiPoint", "coordinates": [ [ 94.866059695407628, 27.060387647972401 ] ] } },
{ "type": "Feature", "properties": { "id": null }, "geometry": { "type": "MultiPoint", "coordinates": [ [ 94.865933545692343, 27.060337533554232 ] ] } },
{ "type": "Feature", "properties": { "id": null }, "geometry": { "type": "MultiPoint", "coordinates": [ [ 94.865739203132563, 27.060414393545436 ] ] } },
{ "type": "Feature", "properties": { "id": null }, "geometry": { "type": "MultiPoint", "coordinates": [ [ 94.865636756507556, 27.060395102469801 ] ] } },
{ "type": "Feature", "properties": { "id": null }, "geometry": { "type": "MultiPoint", "coordinates": [ [ 94.865630618502621, 27.06032045653464 ] ] } },
{ "type": "Feature", "properties": { "id": null }, "geometry": { "type": "MultiPoint", "coordinates": [ [ 94.865765654611437, 27.060321481421965 ] ] } },
{ "type": "Feature", "properties": { "id": null }, "geometry": { "type": "MultiPoint", "coordinates": [ [ 94.865681640668726, 27.060247006252478 ] ] } },
{ "type": "Feature", "properties": { "id": null }, "geometry": { "type": "MultiPoint", "coordinates": [ [ 94.865499022784675, 27.060224558064384 ] ] } },
{ "type": "Feature", "properties": { "id": null }, "geometry": { "type": "MultiPoint", "coordinates": [ [ 94.866206315805741, 27.06007347374743 ] ] } },
{ "type": "Feature", "properties": { "id": null }, "geometry": { "type": "MultiPoint", "coordinates": [ [ 94.865745729586365, 27.060095802876411 ] ] } },
{ "type": "Feature", "properties": { "id": null }, "geometry": { "type": "MultiPoint", "coordinates": [ [ 94.8656183274488, 27.059894434822493 ] ] } },
{ "type": "Feature", "properties": { "id": null }, "geometry": { "type": "MultiPoint", "coordinates": [ [ 94.865823830731784, 27.059891805924625 ] ] } },
{ "type": "Feature", "properties": { "id": null }, "geometry": { "type": "MultiPoint", "coordinates": [ [ 94.86598587817592, 27.059936110569982 ] ] } },
{ "type": "Feature", "properties": { "id": null }, "geometry": { "type": "MultiPoint", "coordinates": [ [ 94.866326556072352, 27.059871103340466 ] ] } },
{ "type": "Feature", "properties": { "id": null }, "geometry": { "type": "MultiPoint", "coordinates": [ [ 94.866488451383773, 27.059723745839751 ] ] } },
{ "type": "Feature", "properties": { "id": null }, "geometry": { "type": "MultiPoint", "coordinates": [ [ 94.866031733841851, 27.059747606858668 ] ] } },
{ "type": "Feature", "properties": { "id": null }, "geometry": { "type": "MultiPoint", "coordinates": [ [ 94.866304001592283, 27.059962002273835 ] ] } },
{ "type": "Feature", "properties": { "id": null }, "geometry": { "type": "MultiPoint", "coordinates": [ [ 94.866299672690047, 27.060039031921569 ] ] } },
{ "type": "Feature", "properties": { "id": null }, "geometry": { "type": "MultiPoint", "coordinates": [ [ 94.866401813717488, 27.060078573632381 ] ] } },
{ "type": "Feature", "properties": { "id": null }, "geometry": { "type": "MultiPoint", "coordinates": [ [ 94.866451655646443, 27.060149410993677 ] ] } },
{ "type": "Feature", "properties": { "id": null }, "geometry": { "type": "MultiPoint", "coordinates": [ [ 94.86679121824838, 27.060276741701518 ] ] } },
{ "type": "Feature", "properties": { "id": null }, "geometry": { "type": "MultiPoint", "coordinates": [ [ 94.866663728062221, 27.060068875447669 ] ] } },
{ "type": "Feature", "properties": { "id": null }, "geometry": { "type": "MultiPoint", "coordinates": [ [ 94.866536380716212, 27.060086581210157 ] ] } },
{ "type": "Feature", "properties": { "id": null }, "geometry": { "type": "MultiPoint", "coordinates": [ [ 94.866722763331566, 27.060120233449499 ] ] } },
{ "type": "Feature", "properties": { "id": null }, "geometry": { "type": "MultiPoint", "coordinates": [ [ 94.866087659969438, 27.060211035058629 ] ] } },
{ "type": "Feature", "properties": { "id": null }, "geometry": { "type": "MultiPoint", "coordinates": [ [ 94.866218931308154, 27.060239361919102 ] ] } },
{ "type": "Feature", "properties": { "id": null }, "geometry": { "type": "MultiPoint", "coordinates": [ [ 94.865669731469765, 27.059712382415491 ] ] } },
{ "type": "Feature", "properties": { "id": null }, "geometry": { "type": "MultiPoint", "coordinates": [ [ 94.865578303608473, 27.059741905636475 ] ] } },
{ "type": "Feature", "properties": { "id": null }, "geometry": { "type": "MultiPoint", "coordinates": [ [ 94.866758499147025, 27.060221735305969 ] ] } },
{ "type": "Feature", "properties": { "id": null }, "geometry": { "type": "MultiPoint", "coordinates": [ [ 94.866741406796905, 27.060832018850878 ] ] } },
{ "type": "Feature", "properties": { "id": null }, "geometry": { "type": "MultiPoint", "coordinates": [ [ 94.866767255348819, 27.060755772100972 ] ] } }
]
}
